[{"OBJECT_NAME":"STARLINK-30494","OBJECT_ID":"2023-151G","EPOCH":"2026-03-09T08:39:06.366240","MEAN_MOTION":15.28417441,"ECCENTRICITY":0.00011553,"INCLINATION":43.0027,"RA_OF_ASC_NODE":192.4566,"ARG_OF_PERICENTER":241.5536,"MEAN_ANOMALY":118.52,"EPHEMERIS_TYPE":0,"CLASSIFICATION_TYPE":"U","NORAD_CAT_ID":57970,"ELEMENT_SET_NO":999,"REV_AT_EPOCH":13740,"BSTAR":-3.569111e-5,"MEAN_MOTION_DOT":-1.272e-5,"MEAN_MOTION_DDOT":0},{"OBJECT_NAME":"STARLINK-32027","OBJECT_ID":"2024-120J","EPOCH":"2026-03-09T23:19:52.029408","MEAN_MOTION":15.30187254,"ECCENTRICITY":0.00010615,"INCLINATION":53.1605,"RA_OF_ASC_NODE":318.2724,"ARG_OF_PERICENTER":74.8828,"MEAN_ANOMALY":285.229,"EPHEMERIS_TYPE":0,"CLASSIFICATION_TYPE":"U","NORAD_CAT_ID":60143,"ELEMENT_SET_NO":999,"REV_AT_EPOCH":9650,"BSTAR":2.1723529e-5,"MEAN_MOTION_DOT":2.84e-6,"MEAN_MOTION_DDOT":0}]
